CCSDS_OMM_VERS = 2.0
CREATION_DATE  = 
ORIGINATOR     = 

OBJECT_NAME    = STARLINK-35312
OBJECT_ID      = 2025-223N
CENTER_NAME    = EARTH
REF_FRAME      = TEME
TIME_SYSTEM    = UTC
MEAN_ELEMENT_THEORY = SGP/SGP4

EPOCH          = 2025-10-30T21:18:14.529024
MEAN_MOTION    = 15.49342449
ECCENTRICITY   = .00014322
INCLINATION    = 53.1598
RA_OF_ASC_NODE = 179.1239
ARG_OF_PERICENTER = 84.2613
MEAN_ANOMALY   = 275.8560

EPHEMERIS_TYPE = 0
CLASSIFICATION_TYPE = U
NORAD_CAT_ID   = 65866
ELEMENT_SET_NO = 999
REV_AT_EPOCH   = 430
BSTAR          = .22457596E-2
MEAN_MOTION_DOT = .126645E-2
MEAN_MOTION_DDOT = 0

CCSDS_OMM_VERS = 2.0
CREATION_DATE  = 
ORIGINATOR     = 

OBJECT_NAME    = STARLINK-35456
OBJECT_ID      = 2025-223P
CENTER_NAME    = EARTH
REF_FRAME      = TEME
TIME_SYSTEM    = UTC
MEAN_ELEMENT_THEORY = SGP/SGP4

EPOCH          = 2025-10-30T21:17:44.754720
MEAN_MOTION    = 15.49342285
ECCENTRICITY   = .00010805
INCLINATION    = 53.1602
RA_OF_ASC_NODE = 179.1224
ARG_OF_PERICENTER = 71.6850
MEAN_ANOMALY   = 288.4277

EPHEMERIS_TYPE = 0
CLASSIFICATION_TYPE = U
NORAD_CAT_ID   = 65867
ELEMENT_SET_NO = 999
REV_AT_EPOCH   = 430
BSTAR          = .20078672E-2
MEAN_MOTION_DOT = .112982E-2
MEAN_MOTION_DDOT = 0

CCSDS_OMM_VERS = 2.0
CREATION_DATE  = 
ORIGINATOR     = 

OBJECT_NAME    = STARLINK-35450
OBJECT_ID      = 2025-223Q
CENTER_NAME    = EARTH
REF_FRAME      = TEME
TIME_SYSTEM    = UTC
MEAN_ELEMENT_THEORY = SGP/SGP4

EPOCH          = 2025-10-30T22:00:01.999584
MEAN_MOTION    = 15.39594680
ECCENTRICITY   = .00013476
INCLINATION    = 53.1605
RA_OF_ASC_NODE = 179.3088
ARG_OF_PERICENTER = 100.8512
MEAN_ANOMALY   = 258.4982

EPHEMERIS_TYPE = 0
CLASSIFICATION_TYPE = U
NORAD_CAT_ID   = 65868
ELEMENT_SET_NO = 999
REV_AT_EPOCH   = 560
BSTAR          = .81395749E-3
MEAN_MOTION_DOT = .32269E-3
MEAN_MOTION_DDOT = 0

CCSDS_OMM_VERS = 2.0
CREATION_DATE  = 
ORIGINATOR     = 

OBJECT_NAME    = STARLINK-35441
OBJECT_ID      = 2025-223R
CENTER_NAME    = EARTH
REF_FRAME      = TEME
TIME_SYSTEM    = UTC
MEAN_ELEMENT_THEORY = SGP/SGP4

EPOCH          = 2025-10-30T22:06:54.779904
MEAN_MOTION    = 15.39593263
ECCENTRICITY   = .00013666
INCLINATION    = 53.1609
RA_OF_ASC_NODE = 179.3355
ARG_OF_PERICENTER = 91.7014
MEAN_ANOMALY   = 268.4148

EPHEMERIS_TYPE = 0
CLASSIFICATION_TYPE = U
NORAD_CAT_ID   = 65869
ELEMENT_SET_NO = 999
REV_AT_EPOCH   = 430
BSTAR          = .1068005E-2
MEAN_MOTION_DOT = .42521E-3
MEAN_MOTION_DDOT = 0

CCSDS_OMM_VERS = 2.0
CREATION_DATE  = 
ORIGINATOR     = 

OBJECT_NAME    = STARLINK-35433
OBJECT_ID      = 2025-223S
CENTER_NAME    = EARTH
REF_FRAME      = TEME
TIME_SYSTEM    = UTC
MEAN_ELEMENT_THEORY = SGP/SGP4

EPOCH          = 2025-10-30T22:00:01.999584
MEAN_MOTION    = 15.39593774
ECCENTRICITY   = .00013931
INCLINATION    = 53.1603
RA_OF_ASC_NODE = 179.2051
ARG_OF_PERICENTER = 99.5700
MEAN_ANOMALY   = 311.2834

EPHEMERIS_TYPE = 0
CLASSIFICATION_TYPE = U
NORAD_CAT_ID   = 65870
ELEMENT_SET_NO = 999
REV_AT_EPOCH   = 560
BSTAR          = .62755408E-3
MEAN_MOTION_DOT = .24762E-3
MEAN_MOTION_DDOT = 0

CCSDS_OMM_VERS = 2.0
CREATION_DATE  = 
ORIGINATOR     = 

OBJECT_NAME    = STARLINK-35465
OBJECT_ID      = 2025-223T
CENTER_NAME    = EARTH
REF_FRAME      = TEME
TIME_SYSTEM    = UTC
MEAN_ELEMENT_THEORY = SGP/SGP4

EPOCH          = 2025-10-30T22:00:01.999584
MEAN_MOTION    = 15.39590981
ECCENTRICITY   = .00012761
INCLINATION    = 53.1608
RA_OF_ASC_NODE = 179.2564
ARG_OF_PERICENTER = 81.0651
MEAN_ANOMALY   = 304.0404

EPHEMERIS_TYPE = 0
CLASSIFICATION_TYPE = U
NORAD_CAT_ID   = 65871
ELEMENT_SET_NO = 999
REV_AT_EPOCH   = 560
BSTAR          = .61044371E-3
MEAN_MOTION_DOT = .24071E-3
MEAN_MOTION_DDOT = 0

CCSDS_OMM_VERS = 2.0
CREATION_DATE  = 
ORIGINATOR     = 

OBJECT_NAME    = STARLINK-34108
OBJECT_ID      = 2025-223U
CENTER_NAME    = EARTH
REF_FRAME      = TEME
TIME_SYSTEM    = UTC
MEAN_ELEMENT_THEORY = SGP/SGP4

EPOCH          = 2025-10-30T22:00:01.999584
MEAN_MOTION    = 15.39589457
ECCENTRICITY   = .00010626
INCLINATION    = 53.1594
RA_OF_ASC_NODE = 179.1029
ARG_OF_PERICENTER = 105.8064
MEAN_ANOMALY   = 356.5721

EPHEMERIS_TYPE = 0
CLASSIFICATION_TYPE = U
NORAD_CAT_ID   = 65872
ELEMENT_SET_NO = 999
REV_AT_EPOCH   = 551
BSTAR          = .72015072E-3
MEAN_MOTION_DOT = .28484E-3
MEAN_MOTION_DDOT = 0

CCSDS_OMM_VERS = 2.0
CREATION_DATE  = 
ORIGINATOR     = 

OBJECT_NAME    = STARLINK-35423
OBJECT_ID      = 2025-223V
CENTER_NAME    = EARTH
REF_FRAME      = TEME
TIME_SYSTEM    = UTC
MEAN_ELEMENT_THEORY = SGP/SGP4

EPOCH          = 2025-10-30T22:00:01.999584
MEAN_MOTION    = 15.39572831
ECCENTRICITY   = .0001334
INCLINATION    = 53.1591
RA_OF_ASC_NODE = 179.0513
ARG_OF_PERICENTER = 100.5845
MEAN_ANOMALY   = 27.5427

EPHEMERIS_TYPE = 0
CLASSIFICATION_TYPE = U
NORAD_CAT_ID   = 65873
ELEMENT_SET_NO = 999
REV_AT_EPOCH   = 560
BSTAR          = .73109911E-3
MEAN_MOTION_DOT = .28909E-3
MEAN_MOTION_DDOT = 0

CCSDS_OMM_VERS = 2.0
CREATION_DATE  = 
ORIGINATOR     = 

OBJECT_NAME    = STARLINK-35425
OBJECT_ID      = 2025-223W
CENTER_NAME    = EARTH
REF_FRAME      = TEME
TIME_SYSTEM    = UTC
MEAN_ELEMENT_THEORY = SGP/SGP4

EPOCH          = 2025-10-30T22:00:01.999584
MEAN_MOTION    = 15.39590854
ECCENTRICITY   = .00013166
INCLINATION    = 53.1599
RA_OF_ASC_NODE = 179.1536
ARG_OF_PERICENTER = 70.0472
MEAN_ANOMALY   = 6.5607

EPHEMERIS_TYPE = 0
CLASSIFICATION_TYPE = U
NORAD_CAT_ID   = 65874
ELEMENT_SET_NO = 999
REV_AT_EPOCH   = 560
BSTAR          = .76467106E-3
MEAN_MOTION_DOT = .30279E-3
MEAN_MOTION_DDOT = 0

CCSDS_OMM_VERS = 2.0
CREATION_DATE  = 
ORIGINATOR     = 

OBJECT_NAME    = STARLINK-34688
OBJECT_ID      = 2025-223X
CENTER_NAME    = EARTH
REF_FRAME      = TEME
TIME_SYSTEM    = UTC
MEAN_ELEMENT_THEORY = SGP/SGP4

EPOCH          = 2025-10-30T22:00:01.999584
MEAN_MOTION    = 15.41115331
ECCENTRICITY   = .00012774
INCLINATION    = 53.1590
RA_OF_ASC_NODE = 179.0016
ARG_OF_PERICENTER = 77.0530
MEAN_ANOMALY   = 75.8716

EPHEMERIS_TYPE = 0
CLASSIFICATION_TYPE = U
NORAD_CAT_ID   = 65875
ELEMENT_SET_NO = 999
REV_AT_EPOCH   = 560
BSTAR          = -.49750751E-1
MEAN_MOTION_DOT = -.1876864E-1
MEAN_MOTION_DDOT = 0

CCSDS_OMM_VERS = 2.0
CREATION_DATE  = 
ORIGINATOR     = 

OBJECT_NAME    = STARLINK-34438
OBJECT_ID      = 2025-223Y
CENTER_NAME    = EARTH
REF_FRAME      = TEME
TIME_SYSTEM    = UTC
MEAN_ELEMENT_THEORY = SGP/SGP4

EPOCH          = 2025-10-30T22:00:01.999584
MEAN_MOTION    = 15.47592264
ECCENTRICITY   = .00013233
INCLINATION    = 53.1592
RA_OF_ASC_NODE = 178.9487
ARG_OF_PERICENTER = 86.2575
MEAN_ANOMALY   = 93.8156

EPHEMERIS_TYPE = 0
CLASSIFICATION_TYPE = U
NORAD_CAT_ID   = 65876
ELEMENT_SET_NO = 999
REV_AT_EPOCH   = 560
BSTAR          = -.44595699E-1
MEAN_MOTION_DOT = -.2075861E-1
MEAN_MOTION_DDOT = 0

CCSDS_OMM_VERS = 2.0
CREATION_DATE  = 
ORIGINATOR     = 

OBJECT_NAME    = STARLINK-35462
OBJECT_ID      = 2025-223Z
CENTER_NAME    = EARTH
REF_FRAME      = TEME
TIME_SYSTEM    = UTC
MEAN_ELEMENT_THEORY = SGP/SGP4

EPOCH          = 2025-10-30T21:11:48.519744
MEAN_MOTION    = 15.49327725
ECCENTRICITY   = .00009463
INCLINATION    = 53.1601
RA_OF_ASC_NODE = 179.0934
ARG_OF_PERICENTER = 109.6755
MEAN_ANOMALY   = 250.4356

EPHEMERIS_TYPE = 0
CLASSIFICATION_TYPE = U
NORAD_CAT_ID   = 65877
ELEMENT_SET_NO = 999
REV_AT_EPOCH   = 430
BSTAR          = .11318902E-2
MEAN_MOTION_DOT = .63054E-3
MEAN_MOTION_DDOT = 0

