STARLINK-35312          
1 65866U 25223N   25303.88766816  .00126645  00000+0  22458-2 0  9994
2 65866  53.1598 179.1239 0001432  84.2613 275.8560 15.49342449  4305
STARLINK-35456          
1 65867U 25223P   25303.88732355  .00112982  00000+0  20079-2 0  9992
2 65867  53.1602 179.1224 0001080  71.6850 288.4277 15.49342285  4301
STARLINK-35450          
1 65868U 25223Q   25303.91668981  .00032269  00000+0  81396-3 0  9999
2 65868  53.1605 179.3088 0001347 100.8512 258.4982 15.39594680  5602
STARLINK-35441          
1 65869U 25223R   25303.92146736  .00042521  00000+0  10680-2 0  9999
2 65869  53.1609 179.3355 0001366  91.7014 268.4148 15.39593263  4307
STARLINK-35433          
1 65870U 25223S   25303.91668981  .00024762  00000+0  62755-3 0  9999
2 65870  53.1603 179.2051 0001393  99.5700 311.2834 15.39593774  5603
STARLINK-35465          
1 65871U 25223T   25303.91668981  .00024071  00000+0  61044-3 0  9993
2 65871  53.1608 179.2564 0001276  81.0651 304.0404 15.39590981  5609
STARLINK-34108          
1 65872U 25223U   25303.91668981  .00028484  00000+0  72015-3 0  9996
2 65872  53.1594 179.1029 0001062 105.8064 356.5721 15.39589457  5515
STARLINK-35423          
1 65873U 25223V   25303.91668981  .00028909  00000+0  73110-3 0  9996
2 65873  53.1591 179.0513 0001334 100.5845  27.5427 15.39572831  5607
STARLINK-35425          
1 65874U 25223W   25303.91668981  .00030279  00000+0  76467-3 0  9998
2 65874  53.1599 179.1536 0001316  70.0472   6.5607 15.39590854  5601
STARLINK-34688          
1 65875U 25223X   25303.91668981 -.01876864  00000+0 -49751-1 0  9994
2 65875  53.1590 179.0016 0001277  77.0530  75.8716 15.41115331  5609
STARLINK-34438          
1 65876U 25223Y   25303.91668981 -.02075861  00000+0 -44596-1 0  9996
2 65876  53.1592 178.9487 0001323  86.2575  93.8156 15.47592264  5603
STARLINK-35462          
1 65877U 25223Z   25303.88320046  .00063054  00000+0  11319-2 0  9995
2 65877  53.1601 179.0934 0000946 109.6755 250.4356 15.49327725  4303
